[
    {
        "Altitude(m)": 617719.7873403884,
        "Argument of Periapsis(deg)": 0.0,
        "Eccentricity": 0.0,
        "Inclination(deg)": 60.0,
        "Latitude(deg)": -41.102684496296945,
        "Longitude(deg)": -44.905310823833354,
        "Mean Anomaly(deg)": -130.90909999999997,
        "RAAN(deg)": 205.0,
        "Satellite Name": "Test1 916",
        "Satellite Number": 916,
        "Semi-Major Axis(m)": 6980739.136638005,
        "Time(s)": 0
    },
    {
        "Altitude(m)": 617911.3231208477,
        "Argument of Periapsis(deg)": 0.00010418945913296404,
        "Eccentricity": 0.0,
        "Inclination(deg)": 60.0,
        "Latitude(deg)": -41.565876037655244,
        "Longitude(deg)": -44.40090324009967,
        "Mean Anomaly(deg)": -130.28899385453812,
        "RAAN(deg)": 204.99957995086024,
        "Satellite Name": "Test1 916",
        "Satellite Number": 916,
        "Semi-Major Axis(m)": 6980739.136638005,
        "Time(s)": 10
    }
]